CCSDS_OMM_VERS = 2.0
CREATION_DATE  = 
ORIGINATOR     = 

OBJECT_NAME    = CZ-2C R/B
OBJECT_ID      = 2022-132E
CENTER_NAME    = EARTH
REF_FRAME      = TEME
TIME_SYSTEM    = UTC
MEAN_ELEMENT_THEORY = SGP/SGP4

EPOCH          = 2025-12-25T22:12:37.738656
MEAN_MOTION    = 15.55626416
ECCENTRICITY   = .0021053
INCLINATION    = 97.2950
RA_OF_ASC_NODE = 356.3832
ARG_OF_PERICENTER = 12.1567
MEAN_ANOMALY   = 348.0192

EPHEMERIS_TYPE = 0
CLASSIFICATION_TYPE = U
NORAD_CAT_ID   = 54039
ELEMENT_SET_NO = 999
REV_AT_EPOCH   = 17888
BSTAR          = .49156E-3
MEAN_MOTION_DOT = .3404E-3
MEAN_MOTION_DDOT = 0

CCSDS_OMM_VERS = 2.0
CREATION_DATE  = 
ORIGINATOR     = 

OBJECT_NAME    = GSLV R/B
OBJECT_ID      = 2022-138AN
CENTER_NAME    = EARTH
REF_FRAME      = TEME
TIME_SYSTEM    = UTC
MEAN_ELEMENT_THEORY = SGP/SGP4

EPOCH          = 2025-12-26T00:45:36.186048
MEAN_MOTION    = 14.96196376
ECCENTRICITY   = .0023978
INCLINATION    = 87.3822
RA_OF_ASC_NODE = 191.0219
ARG_OF_PERICENTER = 62.0505
MEAN_ANOMALY   = 298.3150

EPHEMERIS_TYPE = 0
CLASSIFICATION_TYPE = U
NORAD_CAT_ID   = 54149
ELEMENT_SET_NO = 999
REV_AT_EPOCH   = 17291
BSTAR          = .21939E-3
MEAN_MOTION_DOT = .2514E-4
MEAN_MOTION_DDOT = 0

CCSDS_OMM_VERS = 2.0
CREATION_DATE  = 
ORIGINATOR     = 

OBJECT_NAME    = XRISM
OBJECT_ID      = 2023-137A
CENTER_NAME    = EARTH
REF_FRAME      = TEME
TIME_SYSTEM    = UTC
MEAN_ELEMENT_THEORY = SGP/SGP4

EPOCH          = 2025-12-26T04:24:09.489024
MEAN_MOTION    = 15.10474978
ECCENTRICITY   = .0007628
INCLINATION    = 31.0031
RA_OF_ASC_NODE = 38.7385
ARG_OF_PERICENTER = 20.4840
MEAN_ANOMALY   = 339.6103

EPHEMERIS_TYPE = 0
CLASSIFICATION_TYPE = U
NORAD_CAT_ID   = 57800
ELEMENT_SET_NO = 999
REV_AT_EPOCH   = 12666
BSTAR          = .3455E-3
MEAN_MOTION_DOT = .5927E-4
MEAN_MOTION_DDOT = 0

CCSDS_OMM_VERS = 2.0
CREATION_DATE  = 
ORIGINATOR     = 

OBJECT_NAME    = ACS3
OBJECT_ID      = 2024-077B
CENTER_NAME    = EARTH
REF_FRAME      = TEME
TIME_SYSTEM    = UTC
MEAN_ELEMENT_THEORY = SGP/SGP4

EPOCH          = 2025-12-25T21:28:17.964768
MEAN_MOTION    = 13.86089098
ECCENTRICITY   = .0074235
INCLINATION    = 97.2594
RA_OF_ASC_NODE = 312.5617
ARG_OF_PERICENTER = 305.7641
MEAN_ANOMALY   = 53.6633

EPHEMERIS_TYPE = 0
CLASSIFICATION_TYPE = U
NORAD_CAT_ID   = 59588
ELEMENT_SET_NO = 999
REV_AT_EPOCH   = 8396
BSTAR          = .20948E-1
MEAN_MOTION_DOT = .24704E-3
MEAN_MOTION_DDOT = 0

CCSDS_OMM_VERS = 2.0
CREATION_DATE  = 
ORIGINATOR     = 

OBJECT_NAME    = SZ-21 MODULE
OBJECT_ID      = 2025-246C
CENTER_NAME    = EARTH
REF_FRAME      = TEME
TIME_SYSTEM    = UTC
MEAN_ELEMENT_THEORY = SGP/SGP4

EPOCH          = 2025-12-25T04:36:53.601984
MEAN_MOTION    = 15.63137537
ECCENTRICITY   = .0004589
INCLINATION    = 41.4767
RA_OF_ASC_NODE = 300.0489
ARG_OF_PERICENTER = 327.9877
MEAN_ANOMALY   = 32.0683

EPHEMERIS_TYPE = 0
CLASSIFICATION_TYPE = U
NORAD_CAT_ID   = 66515
ELEMENT_SET_NO = 999
REV_AT_EPOCH   = 639
BSTAR          = .31272E-3
MEAN_MOTION_DOT = .29146E-3
MEAN_MOTION_DDOT = 0

